[{"OBJECT_NAME":"GEESAT-3 01","OBJECT_ID":"2024-159A","EPOCH":"2026-03-09T22:55:44.243616","MEAN_MOTION":14.83820553,"ECCENTRICITY":0.00031646,"INCLINATION":49.9988,"RA_OF_ASC_NODE":183.2096,"ARG_OF_PERICENTER":229.1953,"MEAN_ANOMALY":130.8711,"EPHEMERIS_TYPE":0,"CLASSIFICATION_TYPE":"U","NORAD_CAT_ID":61011,"ELEMENT_SET_NO":999,"REV_AT_EPOCH":8194,"BSTAR":0.00046731486,"MEAN_MOTION_DOT":3.69e-5,"MEAN_MOTION_DDOT":0},{"OBJECT_NAME":"CZ-6A DEB","OBJECT_ID":"2024-140RF","EPOCH":"2026-03-09T00:00:20.621952","MEAN_MOTION":14.59669494,"ECCENTRICITY":0.0127437,"INCLINATION":88.8187,"RA_OF_ASC_NODE":269.4528,"ARG_OF_PERICENTER":270.9127,"MEAN_ANOMALY":87.7486,"EPHEMERIS_TYPE":0,"CLASSIFICATION_TYPE":"U","NORAD_CAT_ID":61161,"ELEMENT_SET_NO":999,"REV_AT_EPOCH":8205,"BSTAR":0.0014244092,"MEAN_MOTION_DOT":7.621e-5,"MEAN_MOTION_DDOT":0}]
